[{"OBJECT_NAME":"1998-067XK","OBJECT_ID":"1998-067XK","EPOCH":"2025-09-30T21:43:47.200224","MEAN_MOTION":15.52934659,"ECCENTRICITY":6.683e-5,"INCLINATION":51.6325,"RA_OF_ASC_NODE":142.9254,"ARG_OF_PERICENTER":200.7644,"MEAN_ANOMALY":159.3319,"EPHEMERIS_TYPE":0,"CLASSIFICATION_TYPE":"U","NORAD_CAT_ID":65731,"ELEMENT_SET_NO":999,"REV_AT_EPOCH":178,"BSTAR":0.0012455413,"MEAN_MOTION_DOT":0.00079271,"MEAN_MOTION_DDOT":0},{"OBJECT_NAME":"RSP-03","OBJECT_ID":"1998-067XL","EPOCH":"2025-10-01T00:48:19.435392","MEAN_MOTION":15.53163212,"ECCENTRICITY":7.395e-5,"INCLINATION":51.6322,"RA_OF_ASC_NODE":142.281,"ARG_OF_PERICENTER":210.8441,"MEAN_ANOMALY":149.2506,"EPHEMERIS_TYPE":0,"CLASSIFICATION_TYPE":"U","NORAD_CAT_ID":65732,"ELEMENT_SET_NO":999,"REV_AT_EPOCH":181,"BSTAR":0.0014084536,"MEAN_MOTION_DOT":0.00090579,"MEAN_MOTION_DDOT":0},{"OBJECT_NAME":"1998-067XM","OBJECT_ID":"1998-067XM","EPOCH":"2025-09-30T23:14:02.439456","MEAN_MOTION":15.53489079,"ECCENTRICITY":0.00032223,"INCLINATION":51.6322,"RA_OF_ASC_NODE":142.5939,"ARG_OF_PERICENTER":94.1973,"MEAN_ANOMALY":265.9386,"EPHEMERIS_TYPE":0,"CLASSIFICATION_TYPE":"U","NORAD_CAT_ID":65733,"ELEMENT_SET_NO":999,"REV_AT_EPOCH":180,"BSTAR":0.0017129277,"MEAN_MOTION_DOT":0.00111893,"MEAN_MOTION_DDOT":0}]
